{
"type": "FeatureCollection",
"name": "Rpa",
"extent": [ -540242.93577447417, -1186226.3457879829, -539024.72716727259, -1184330.8814221839 ],
"crs": { "type": "name", "properties": { "name": "urn:ogc:def:crs:EPSG::5514" } },
"features": [
{ "type": "Feature", "properties": { "gml_id": "uuid.731dade3-aa8d-4651-98aa-cb1c013b1255", "identifier": "731dade3-aa8d-4651-98aa-cb1c013b1255", "beginPosition": "2021-03-17T16:54:59Z", "interpretation": "BASELINE", "sequenceNumber": 1, "correctionNumber": 0, "type": "NORMAL", "length": 1901.44, "length_uom": "M", "width": 30, "width_uom": "M", "gradeSeparation": "OTHER", "composition": "CONC", "preparation": "COMPACTED", "surfaceCondition": "GOOD", "classPCN": null, "pavementTypePCN": null, "pavementSubgradePCN": null, "maxTyrePressurePCN": null, "evaluationMethodPCN": null, "classLCN": null, "weightSIWL": null, "tyrePressureSIWL": null, "tyrePressureSIWL_uom": null, "weightAUW": null, "weightAUW_uom": null, "associatedRunway_href": "urn:uuid:BEA831FD-8C11-4CCB-935C-D217A26B174F", "timeSlice|RunwayElementTimeSlice|surfaceProperties|SurfaceCharacteristics|classPCN": 33, "timeSlice|RunwayElementTimeSlice|surfaceProperties|SurfaceCharacteristics|pavementTypePCN": "RIGID", "timeSlice|RunwayElementTimeSlice|surfaceProperties|SurfaceCharacteristics|pavementSubgradePCN": "B", "timeSlice|RunwayElementTimeSlice|surfaceProperties|SurfaceCharacteristics|maxTyrePressurePCN": "X", "timeSlice|RunwayElementTimeSlice|surfaceProperties|SurfaceCharacteristics|evaluationMethodPCN": "TECH", "tyrePressureSIWL_": null, "weightAUW_": null }, "geometry": { "type": "MultiPolygon", "coordinates": [ [ [ [ -540178.630558661883697, -1186187.806996500818059 ], [ -540242.935774474171922, -1186149.252241208683699 ], [ -540076.548519542673603, -1185871.288037587422878 ], [ -540050.898044430185109, -1185828.482512615155429 ], [ -539352.66234333999455, -1184663.292367730056867 ], [ -539327.000061940983869, -1184620.459911433979869 ], [ -539234.781437442288734, -1184466.721223801374435 ], [ -539206.182773404987529, -1184418.992598691722378 ], [ -539192.619907988118939, -1184396.358171474887058 ], [ -539153.385630944161676, -1184330.88142218394205 ], [ -539089.055515530053526, -1184369.405194922816008 ], [ -539024.727167272591032, -1184407.987281523179263 ], [ -539059.240420276415534, -1184465.591621542582288 ], [ -539062.743284758296795, -1184471.435822583269328 ], [ -539075.280913800816052, -1184492.360090789152309 ], [ -539075.270292470348068, -1184492.366455404786393 ], [ -539106.122331340564415, -1184543.831871478818357 ], [ -539136.95914682536386, -1184595.295971718616784 ], [ -539136.969766570953652, -1184595.289608052698895 ], [ -539198.271580551634543, -1184697.549409288913012 ], [ -539223.975214153877459, -1184740.425835468107834 ], [ -539922.097915772115812, -1185905.573932072613388 ], [ -539947.801784657407552, -1185948.471989715704694 ], [ -540114.297235768870451, -1186226.345787982922047 ], [ -540178.630558661883697, -1186187.806996500818059 ] ] ] ] } }
]
}
